PATHFINDER 1            
1 41787U 16059E   21274.57458402  .00000107  00000-0  29436-4 0  9995
2 41787  97.9533 322.9981 0029121 265.5827  94.2047 14.63841735267866
SCATSAT 1               
1 41790U 16059H   21274.57399980  .00000045  00000-0  22839-4 0  9995
2 41790  98.3587 315.8377 0004053 281.3283  78.7461 14.50827070265534
WORLDVIEW-4             
1 41848U 16067A   21274.01776732  .00127555  81728-5  46061-3 0  9990
2 41848  97.8010  77.7962 0007298 171.9638 188.1751 15.88642728270293
GOKTURK 1A              
1 41875U 16073A   21274.43431770  .00000076  00000-0  24204-4 0  9996
2 41875  98.1544 167.7418 0001547  70.1998 289.9363 14.62762812257411
RESOURCESAT-2A          
1 41877U 16074A   21274.44850808  .00000032  00000-0  34721-4 0  9994
2 41877  98.7473 347.4689 0001789  40.9042 319.2277 14.21617129249967
CARTOSAT-2D             
1 41948U 17008A   21274.45101374  .00001285  00000-0  64130-4 0  9997
2 41948  97.4305 333.1475 0008008 143.2701 216.9082 15.19257910256478
SENTINEL-2B             
1 42063U 17013A   21274.48722546  .00000028  00000-0  27475-4 0  9990
2 42063  98.5711 347.9426 0000888  89.6031 270.5255 14.30814571238737
ZHUHAI-1 02 (CAS-4B)    
1 42759U 17034B   21274.51801821  .00001267  00000-0  89027-4 0  9990
2 42759  43.0190 317.9061 0006775 108.2848  33.8166 15.10402757237189
NUSAT-3 (MILANESAT)     
1 42760U 17034C   21274.43862578  .00001326  00000-0  91100-4 0  9990
2 42760  43.0169 314.7150 0006566 136.8331 313.6093 15.11011586237223
ZHUHAI-1 01 (CAS-4A)    
1 42761U 17034D   21274.50218065  .00001125  00000-0  80335-4 0  9990
2 42761  43.0194 316.9700 0007156 110.2618  28.3213 15.10488937237183
CARTOSAT-2E             
1 42767U 17036C   21274.48364116  .00001373  00000-0  68418-4 0  9997
2 42767  97.4931 332.7497 0007986 191.0132 265.2481 15.19223997237045
FORMOSAT-5              
1 42920U 17049A   21274.33726879  .00000041  00000-0  21493-4 0  9997
2 42920  98.2643 351.9070 0009753 332.5081  27.5616 14.50869875217293
SENTINEL-5P             
1 42969U 17064A   21274.44139790  .00000004  00000-0  22826-4 0  9999
2 42969  98.7435 212.9590 0000993  80.5172 279.6116 14.19538247205575
SKYSAT-C11              
1 42987U 17068A   21274.40727213  .00006894  00000-0  17184-3 0  9995
2 42987  97.2693  29.6846 0010188 142.1532 218.0432 15.40488365218521
SKYSAT-C10              
1 42988U 17068B   21274.13042060  .00006527  00000-0  16274-3 0  9998
2 42988  97.2733  29.4582 0002569 173.3333 186.7948 15.40546684218501
SKYSAT-C9               
1 42989U 17068C   21274.32084650  .00006529  00000-0  16327-3 0  9992
2 42989  97.2686  28.9736 0002442  65.7631 294.3871 15.40456068218720
SKYSAT-C8               
1 42990U 17068D   21274.37388225  .00006724  00000-0  16771-3 0  9994
2 42990  97.2739  30.0846 0002042 117.7840 242.3613 15.40524921218566
SKYSAT-C7               
1 42991U 17068E   21273.32067819  .00005625  00000-0  14043-3 0  9991
2 42991  97.2743  29.0729 0000464  87.6466 272.4834 15.40574325218400
SKYSAT-C6               
1 42992U 17068F   21273.37408847  .00005705  00000-0  14229-3 0  9992
2 42992  97.2762  29.4418 0002394  65.8772 294.2724 15.40596673218425
CARTOSAT-2F             
1 43111U 18004A   21274.51851685  .00001130  00000-0  56874-4 0  9997
2 43111  97.4875 332.8863 0003744 197.9909 269.0869 15.19243420206231
NUSAT-4 (ADA)           
1 43195U 18015D   21274.56246823  .00004048  00000-0  15842-3 0  9998
2 43195  97.5011  48.4024 0015268 238.1208 186.8420 15.26306110203701
NUSAT-5 (MARYAM)        
1 43204U 18015K   21274.54588144  .00004201  00000-0  16309-3 0  9992
2 43204  97.5019  48.8074 0014766 240.0169 188.0916 15.26564093203327
GAOFEN 1-02             
1 43259U 18031A   21274.44273731  .00000159  00000-0  30076-4 0  9998
2 43259  97.9262 351.2439 0005007 114.9069 245.2662 14.76518630188925
GAOFEN 1-03             
1 43260U 18031B   21274.48889800 -.00000799  00000-0 -10750-3 0  9992
2 43260  97.9258 351.2715 0005254 176.5868 183.5326 14.76515445188926
GAOFEN 1-04             
1 43262U 18031D   21274.46413925 -.00000806  00000-0 -10854-3 0  9997
2 43262  97.9264 351.2600 0005598 131.0753 229.0910 14.76514931188911
SENTINEL-3B             
1 43437U 18039A   21274.46439377 -.00000011  00000-0  13593-4 0  9999
2 43437  98.6196 340.4524 0000705 101.3494 258.7765 14.26739123178901
GAOFEN 5                
1 43461U 18043A   21274.40328747  .00000086  00000-0  28771-4 0  9998
2 43461  98.2377 211.8615 0002775  39.7361 320.4037 14.57842697180911
GAOFEN 6                
1 43484U 18048A   21274.49344017  .00000166  00000-0  31124-4 0  9990
2 43484  97.9522 354.1406 0008908 327.5384  32.5279 14.76515169179627
GAOFEN 11-1             
1 43585U 18063A   21274.46038063  .00001973  00000-0  85379-4 0  9995
2 43585  97.3460 351.4508 0013681   7.6789  90.0823 15.23522551176959
AEOLUS                  
1 43600U 18066A   21274.05714574  .00070543  00000-0  28114-3 0  9991
2 43600  96.7157 279.2398 0008433 100.4440 259.7784 15.86382918179999
ICESAT-2                
1 43613U 18070A   21273.69730504  .00004055  00000-0  14734-3 0  9998
2 43613  92.0046 188.1383 0002526  83.4304 276.7232 15.28246112169703
HYSIS                   
1 43719U 18096A   21274.39588734 -.00000635  00000-0 -79673-4 0  9993
2 43719  97.9876 337.8243 0001878 352.2390   7.8864 14.78616994153265
KAZSTSAT                
1 43783U 18099AB  21274.47347769  .00000566  00000-0  58765-4 0  9997
2 43783  97.6663 341.7455 0009430  60.1009 300.1147 14.93698945154144
SAUDISAT 5A             
1 43831U 18102A   21274.56283367  .00001257  00000-0  84700-4 0  9995
2 43831  97.5266 348.3260 0013978 351.7106 115.2220 15.08410759155142
SAUDISAT 5B             
1 43833U 18102C   21274.45329922  .00000179  00000-0  15369-4 0  9990
2 43833  97.5272 348.9313 0015231 359.4484  55.6060 15.08843036155163
GAOFEN 10R              
1 44622U 19066A   21274.41122244  .00000323  00000-0  48741-4 0  9992
2 44622  97.8620 213.2106 0001566  92.6139 267.5254 14.80592739107675
CARTOSAT-3              
1 44804U 19081A   21274.46987056  .00001087  00000-0  54693-4 0  9997
2 44804  97.4360 335.7465 0014449  45.4527  64.6584 15.19242141102313
GAOFEN 12-1             
1 44819U 19082A   21274.37294978  .00000086  00000-0  17972-4 0  9995
2 44819  97.8821 294.7758 0000828  81.3648 278.7664 14.80280600 99617
NUSAT-7 (SOPHIE)        
1 45017U 20003B   21274.53890411  .00003810  00000-0  12999-3 0  9994
2 45017  97.2539 337.2385 0012955 198.4408 268.9796 15.30861352 95578
NUSAT-8 (MARIE)         
1 45018U 20003C   21274.52893242  .00004542  00000-0  14515-3 0  9998
2 45018  97.2665 337.5993 0011253 201.5191 266.8329 15.32895677 95558
NUSAT-6 (HYPATIA)       
1 46272U 20061A   21274.50452705  .00002450  00000-0  10889-3 0  9994
2 46272  97.3604 346.0420 0005701 265.3508  94.7077 15.22443007 59807
NEMO-HD                 
1 46277U 20061F   21274.54855237  .00000793  00000-0  44092-4 0  9992
2 46277  97.4234 346.1193 0002220  40.7149  66.0555 15.16504003 59618
NUSAT-12 (DOROTHY)      
1 46827U 20079A   21274.50999434  .00005165  00000-0  16751-3 0  9994
2 46827  97.2317 345.3956 0010381 143.6723 312.1289 15.32361942 50403
NUSAT-9 (ALICE)         
1 46828U 20079B   21274.51844813  .00004732  00000-0  15156-3 0  9993
2 46828  97.2177 345.3505 0003518 163.4633 294.8558 15.32848321 50431
NUSAT-11 (CORA)         
1 46829U 20079C   21274.53117619  .00004794  00000-0  15323-3 0  9997
2 46829  97.2241 345.4295 0008295 155.1142 313.0400 15.32880783 50428
NUSAT-15 (KATHERINE)    
1 46830U 20079D   21274.57578367  .00004694  00000-0  15028-3 0  9995
2 46830  97.2380 346.1420 0005892 125.8037 339.9072 15.32855734 50441
NUSAT-14 (HEDY)         
1 46831U 20079E   21274.51927613  .00004565  00000-0  14599-3 0  9991
2 46831  97.2336 345.7872 0009515 152.6904 303.4291 15.32882215 50427
NUSAT-10 (CAROLINE)     
1 46832U 20079F   21274.53775429  .00004500  00000-0  14365-3 0  9990
2 46832  97.2350 345.7797 0009675 152.1462 316.3646 15.32944779 50422
NUSAT-13 (EMMY)         
1 46833U 20079G   21274.51060844  .00004431  00000-0  14169-3 0  9992
2 46833  97.2344 345.8104 0009063 153.9325 301.8077 15.32907036 50429
NUSAT-17 (MARY)         
1 46835U 20079J   21274.56056324  .00004498  00000-0  14522-3 0  9993
2 46835  97.2344 345.7461 0009027 166.8888 300.4525 15.32586391 50423
NUSAT-18 (VERA)         
1 46836U 20079K   21274.54211367  .00004572  00000-0  14611-3 0  9994
2 46836  97.2357 345.9337 0009471 174.6245 292.7753 15.32907029 50431
NUSAT-16 (LISE)         
1 46840U 20079P   21274.56390962  .00004182  00000-0  13393-3 0  9993
2 46840  97.2371 345.9523 0006988 168.3761 299.1955 15.32905691 50430
SENTINEL-6              
1 46984U 20086A   21274.61922437 -.00000061  00000-0  00000+0 0  9994
2 46984  66.0408 106.6365 0007727 264.0881  95.9258 12.80930363 40216
GAOFEN 12-2             
1 48079U 21026A   21274.47494235  .00000084  00000-0  17746-4 0  9994
2 48079  97.8740 264.7163 0002267  72.2280 287.9189 14.80285693 27315
NUSAT-19 (ROSALIND)     
1 48905U 21059AC  21274.39714338  .00003752  00000-0  19351-3 0  9996
2 48905  97.4775  41.7931 0009185 251.8754 194.4381 15.16928821 14779
NUSAT-22 (SOFYA)        
1 48919U 21059AS  21274.41440425 -.00021722  00000-0 -79362-3 0  9994
2 48919  97.3804  42.0115 0016494 246.6427 154.8381 15.27947846 14819
NUSAT-21 (ELISA)        
1 48920U 21059AT  21273.83018044  .00007707  00000-0  28135-3 0  9996
2 48920  97.3683  41.3724 0017159 256.1195 207.2495 15.28271455 14727
NUSAT-20 (GRACE)        
1 48921U 21059AU  21274.42595890  .00003859  00000-0  14829-3 0  9991
2 48921  97.3900  42.0278 0014718 274.1055 126.7655 15.26943893 14818
LANDSAT 9               
1 49260U 21088A   21274.42514050 -.00000113  00000-0 -12105-4 0  9997
2 49260  98.2186 343.0431 0012116 279.5744  80.4084 14.64484988   532
